[{"OBJECT_NAME":"DAMPE","OBJECT_ID":"2015-078A","EPOCH":"2026-03-09T23:55:00.527232","MEAN_MOTION":15.30502084,"ECCENTRICITY":0.00138005,"INCLINATION":97.4588,"RA_OF_ASC_NODE":73.9866,"ARG_OF_PERICENTER":70.6942,"MEAN_ANOMALY":289.579,"EPHEMERIS_TYPE":0,"CLASSIFICATION_TYPE":"U","NORAD_CAT_ID":41173,"ELEMENT_SET_NO":999,"REV_AT_EPOCH":56937,"BSTAR":9.1158173e-5,"MEAN_MOTION_DOT":2.617e-5,"MEAN_MOTION_DDOT":0},{"OBJECT_NAME":"STARLINK-35935","OBJECT_ID":"2025-265M","EPOCH":"2026-03-09T13:46:07.527072","MEAN_MOTION":15.27613078,"ECCENTRICITY":0.0001952,"INCLINATION":43.0066,"RA_OF_ASC_NODE":278.7646,"ARG_OF_PERICENTER":251.4524,"MEAN_ANOMALY":108.6116,"EPHEMERIS_TYPE":0,"CLASSIFICATION_TYPE":"U","NORAD_CAT_ID":66527,"ELEMENT_SET_NO":999,"REV_AT_EPOCH":1709,"BSTAR":0.0023305,"MEAN_MOTION_DOT":0.00064497,"MEAN_MOTION_DDOT":0}]
